0 SL-8 DEB
1 21750U 91009CQ  13282.57801159  .00000059  00000-0  63784-3 0  3906
2 21750 074.0687 136.5660 0098025 240.7115 118.4154 12.27858555  9102
0 SL-8 DEB
1 21750U 91009CQ  13285.59237874  .00000201  00000-0  18671-2 0  3912
2 21750 074.0698 132.7348 0098020 236.0772 123.0937 12.27861008  9475
0 SL-8 DEB
1 21750U 91009CQ  13288.53239633  .00000224  00000-0  20588-2 0  3920
2 21750 074.0695 128.9931 0097111 231.7360 158.9507 12.27862771  9830
0 SL-8 DEB
1 21750U 91009CQ  13291.24095117  .00000240  00000-0  21977-2 0  3931
2 21750 074.0704 125.5495 0096982 227.7086 251.7171 12.27864800 10166
0 SL-8 DEB
1 21750U 91009CQ  13295.97439056  .00000254  00000-0  23204-2 0  3940
2 21750 074.0699 119.5289 0097108 221.0355 294.8217 12.27865828 10744
